STARLINK-6088           
1 56098U 23046F   25043.49732718 -.00001617  00000+0 -10460-3 0  9998
2 56098  43.0061 119.4344 0001661 269.4511  90.6141 15.02539327103363
STARLINK-6093           
1 56099U 23046G   25043.55269913  .00002469  00000+0  19778-3 0  9993
2 56099  43.0017 118.9875 0001161 275.6812  84.3898 15.02532436103370
STARLINK-6076           
1 56100U 23046H   25043.54826686  .00000079  00000+0  20932-4 0  9991
2 56100  43.0021 118.9543 0001452 272.7567  87.3109 15.02531851103376
STARLINK-6095           
1 56101U 23046J   25043.48067347  .00002542  00000+0  20323-3 0  9996
2 56101  43.0013 119.3059 0001364 275.5975  84.4712 15.02532548103362
STARLINK-6075           
1 56102U 23046K   25043.47512401 -.00003901  00000+0 -27376-3 0  9999
2 56102  43.0036 119.2643 0001277 274.5435  85.5261 15.02545332103365
STARLINK-6096           
1 56103U 23046L   25043.54382716 -.00000410  00000+0 -15304-4 0  9993
2 56103  43.0022 118.9194 0001578 277.4091  82.6572 15.02535884103917
STARLINK-6062           
1 56104U 23046M   25043.54493652 -.00000507  00000+0 -22468-4 0  9992
2 56104  43.0022 118.9282 0001380 266.3169  93.7516 15.02534662103374
STARLINK-6066           
1 56105U 23046N   25043.46511873  .00001392  00000+0  11805-3 0  9993
2 56105  43.0019 119.1855 0001286 206.3412 153.7365 15.02556654103363
STARLINK-6030           
1 56107U 23046Q   25043.26018571 -.00002488  00000+0 -16930-3 0  9993
2 56107  43.0026 120.2313 0001076 277.0587  83.0133 15.02508887103330
STARLINK-6081           
1 56108U 23046R   25043.47401749 -.00000451  00000+0 -18335-4 0  9990
2 56108  43.0021 119.2490 0000765 274.8277  85.2478 15.02538027103363
STARLINK-6083           
1 56109U 23046S   25043.26348845 -.00000248  00000+0 -32601-5 0  9992
2 56109  43.0008 120.2531 0001637 279.3458  80.7199 15.02531536103332
STARLINK-6082           
1 56110U 23046T   25043.46845054 -.00000356  00000+0 -11252-4 0  9998
2 56110  43.0048 119.2156 0001776 292.5161  67.5493 15.02556564103362
STARLINK-6084           
1 56111U 23046U   25043.51497151  .00000120  00000+0  23922-4 0  9990
2 56111  43.0026 118.7011 0001531 255.9791 104.0881 15.02551803103374
STARLINK-6080           
1 56112U 23046V   25043.25461020  .00000129  00000+0  24602-4 0  9993
2 56112  43.0025 120.1873 0001391 270.1990  89.8692 15.02534924103332
STARLINK-6113           
1 56113U 23046W   25043.51052887  .00000511  00000+0  52910-4 0  9998
2 56113  43.0026 118.6679 0001269 267.3702  92.6995 15.02533088103375
STARLINK-6101           
1 56115U 23046Y   25043.50608421 -.00004797  00000+0 -34040-3 0  9995
2 56115  43.0027 118.6336 0001836 267.8007  92.2625 15.02517183103375
STARLINK-6114           
1 56116U 23046Z   25043.25128150 -.00000829  00000+0 -46308-4 0  9997
2 56116  43.0026 120.1626 0001338 263.0293  97.0397 15.02531328103339
STARLINK-6107           
1 56117U 23046AA  25043.16187445 -.00001048  00000+0 -62527-4 0  9995
2 56117  43.0056 108.2413 0001963 277.0159  83.0461 15.02528594103466
STARLINK-6105           
1 56118U 23046AB  25043.50391216  .00015564  00000+0  11425-2 0  9992
2 56118  43.0015 118.6191 0001361 325.1948  34.8805 15.03262674103374
STARLINK-6091           
1 56119U 23046AC  25043.50424840  .00000477  00000+0  50404-4 0  9992
2 56119  43.0025 106.5007 0001255 281.0019  79.0683 15.02531684104059
STARLINK-6079           
1 56120U 23046AD  25043.51204155 -.00002579  00000+0 -17601-3 0  9998
2 56120  43.0022 106.5623 0001062 282.7595  77.3128 15.02518723103519
STARLINK-6092           
1 56121U 23046AE  25043.44110913  .00005321  00000+0  40902-3 0  9995
2 56121  43.0046 106.8893 0002009 263.9324  96.1289 15.02506836103509
STARLINK-6094           
1 56122U 23046AF  25043.51163323 -.00001571  00000+0 -10127-3 0  9998
2 56122  43.0058 118.6720 0001246 243.2635 116.8080 15.02534613103379
STARLINK-6115           
1 56123U 23046AH  25043.22945559  .00000085  00000+0  21387-4 0  9994
2 56123  43.0031 107.8789 0001309 271.7174  88.3519 15.02534215103479
STARLINK-6126           
1 56124U 23046AJ  25043.50869057  .00001745  00000+0  14424-3 0  9991
2 56124  43.0051 106.5346 0001581 269.8295  90.2366 15.02527487104051
STARLINK-6119           
1 56125U 23046AK  25043.43221889  .00000503  00000+0  52284-4 0  9997
2 56125  43.0021 106.8202 0001124 263.8126  96.2588 15.02535949103506
STARLINK-6124           
1 56126U 23046AL  25043.15964838  .00000080  00000+0  20980-4 0  9993
2 56126  43.0042 108.2144 0001208 268.4062  91.6642 15.02535108103466
STARLINK-6104           
1 56127U 23046AM  25043.21836970  .00000541  00000+0  55144-4 0  9998
2 56127  43.0026 107.7947 0001150 279.2432  80.8281 15.02532915103474
STARLINK-6122           
1 56128U 23046AN  25043.16852819  .00000776  00000+0  72560-4 0  9994
2 56128  43.0019 108.2819 0001236 276.3029  83.7672 15.02523515103467
STARLINK-6121           
1 56129U 23046AP  25043.28920910  .00000907  00000+0  82184-4 0  9995
2 56129  43.0031  55.5690 0000995 266.4259  93.6469 15.02534548104080
STARLINK-6117           
1 56130U 23046AQ  25043.22279556 -.00002430  00000+0 -16493-3 0  9998
2 56130  43.0040 107.8318 0000540 285.6943  74.3839 15.02528585103472
STARLINK-6120           
1 56131U 23046AR  25043.14189272 -.00000160  00000+0  32502-5 0  9993
2 56131  42.9978 108.0754 0001102 272.2313  87.8403 15.02531540103466
STARLINK-6071           
1 56132U 23046AS  25043.21946897  .00000418  00000+0  46029-4 0  9999
2 56132  43.0034 107.8043 0001480 266.3687  93.6986 15.02530988103474
STARLINK-5566           
1 56133U 23046AT  25043.47061133  .00012886  00000+0  95232-3 0  9990
2 56133  43.0016 106.2493 0001190 317.1844  42.8906 15.03125322103511
STARLINK-5564           
1 56134U 23046AU  25043.48204236  .00000509  00000+0  52740-4 0  9992
2 56134  43.0029 106.3332 0001129 262.6374  97.4340 15.02542058103519
STARLINK-5489           
1 56136U 23046AW  25043.47759980  .00001127  00000+0  98426-4 0  9992
2 56136  43.0019 106.2982 0001229 274.6084  85.4618 15.02545575103514
STARLINK-5090           
1 56137U 23046AX  25043.52189360  .00002761  00000+0  21940-3 0  9999
2 56137  43.0001 105.7692 0001421 291.6403  68.4288 15.02526348103528
STARLINK-4774           
1 56138U 23046AY  25043.47095148 -.00000105  00000+0  72925-5 0  9996
2 56138  43.0053 106.2506 0001562 276.7691  83.2973 15.02532419103516
STARLINK-5375           
1 56140U 23046BA  25043.46872913 -.00000242  00000+0 -28658-5 0  9998
2 56140  43.0039 106.2316 0001293 268.4237  91.6457 15.02534073103515
STARLINK-5377           
1 56141U 23046BB  25043.52079347  .00018908  00000+0  14143-2 0  9993
2 56141  43.0017 105.7621 0000449 229.3476 130.7327 15.02448011104066
STARLINK-5376           
1 56142U 23046BC  25043.53187339  .00002150  00000+0  17420-3 0  9990
2 56142  43.0021 105.8453 0000654 212.2335 147.8467 15.02536862104065
STARLINK-5016           
1 56143U 23046BD  25043.44874822 -.00000235  00000+0 -22994-5 0  9999
2 56143  43.0033 106.0803 0001189 258.9542 101.1166 15.02537051103511
STARLINK-5374           
1 56144U 23046BE  25043.46206643 -.00002555  00000+0 -17413-3 0  9997
2 56144  42.9967 106.1773 0000354 182.3299 177.7542 15.02544854103511
STARLINK-5111           
1 56146U 23046BG  25043.45096884  .00001076  00000+0  94727-4 0  9991
2 56146  43.0023 106.0974 0001167 265.1842  94.8867 15.02534924104053
STARLINK-5140           
1 56147U 23046BH  25043.77780163  .00000969  00000+0  88526-4 0  9997
2 56147  43.0031  66.0261 0000882 271.8157  88.2584 15.01722797104007
STARLINK-5089           
1 56148U 23046BJ  25043.78110795  .00004812  00000+0  37870-3 0  9993
2 56148  43.0032  66.0539 0001134 264.1969  95.8744 15.01754898104003
STARLINK-30107          
1 56287U 23056B   25043.60919536  .00000317  00000+0  38499-4 0  9994
2 56287  42.9979 170.0279 0001166 270.3710  89.6998 15.02539239100740
STARLINK-30106          
1 56288U 23056C   25043.64237382 -.00004286  00000+0 -30224-3 0  9999
2 56288  43.0022 169.4403 0001332 276.4624  83.6067 15.02557057100759
STARLINK-30095          
1 56289U 23056D   25043.27397738  .00000544  00000+0  55331-4 0  9999
2 56289  43.0016 145.6773 0001139 278.4427  81.6287 15.02532549101591
STARLINK-30103          
1 56290U 23056E   25043.63905146  .00000231  00000+0  32203-4 0  9995
2 56290  43.0032 169.4155 0001180 268.0725  91.9982 15.02535514101356
STARLINK-30113          
1 56291U 23056F   25043.64570867  .00000024  00000+0  16856-4 0  9991
2 56291  43.0015 169.4570 0001427 272.0470  88.0208 15.02540015101355
STARLINK-30098          
1 56292U 23056G   25043.63571561 -.00003434  00000+0 -23915-3 0  9996
2 56292  43.0019 169.3790 0000767 292.3189  67.7572 15.02557201100757
STARLINK-30090          
1 56293U 23056H   25043.69564466 -.00006831  00000+0 -49063-3 0  9995
2 56293  43.0018 169.8126 0001933 273.6670  86.3952 15.02568765101351
STARLINK-30049          
1 56294U 23056J   25043.69231863 -.00000058  00000+0  10771-4 0  9997
2 56294  43.0016 169.7289 0001365 271.2374  88.8312 15.02546513101357
STARLINK-30083          
1 56295U 23056K   25043.61967756  .00002295  00000+0  18491-3 0  9997
2 56295  43.0015 143.9534 0000867 191.4688 168.6135 15.02539711101645
STARLINK-30089          
1 56296U 23056L   25043.28756162 -.00004919  00000+0 -34928-3 0  9998
2 56296  43.0011 132.7259 0001233 258.6266 101.4438 15.02538283101743
STARLINK-30086          
1 56297U 23056M   25043.40642650  .00000301  00000+0  37332-4 0  9991
2 56297  43.0016 171.0250 0001162 262.6710  97.4000 15.02534146101312
STARLINK-30109          
1 56298U 23056N   25043.34661165  .00000933  00000+0  84100-4 0  9993
2 56298  43.0012 171.4377 0000321 266.5029  93.5777 15.02536435101361
STARLINK-30108          
1 56299U 23056P   25043.64607624  .00000255  00000+0  33959-4 0  9990
2 56299  43.0028 157.2506 0000989 255.0040 105.0693 15.02537655101553
